ARIANE 5 R/B            
1 28499U 04049H   25309.99648868  .00001055  00000+0  12325-3 0  9992
2 28499  98.2514 108.9682 0085408  32.6568 327.9886 14.84897159127438
CZ-2D R/B               
1 28738U 05024B   25310.29228780  .00029924  00000+0  52035-3 0  9991
2 28738  97.3663 316.8447 0008122 107.0092 253.2050 15.50721426120608
ALOS (DAICHI)           
1 28931U 06002A   25310.26417371  .00002440  00000+0  42170-3 0  9999
2 28931  98.1033 262.0245 0001410  51.4737 308.6595 14.69300803 55351
H-2A R/B                
1 28932U 06002B   25310.30405450  .00012484  00000+0  67470-3 0  9999
2 28932  98.2308  82.1134 0054816 301.0697  58.5159 15.13551076 75756
RESURS-DK 1             
1 29228U 06021A   25310.17991944  .00003621  00000+0  21734-3 0  9998
2 29228  69.9333 196.2970 0007370 288.5369  71.4996 15.11857046 68851
CZ-4B R/B               
1 29507U 06046C   25310.12684179  .00007343  00000+0  38772-3 0  9994
2 29507  97.5788 350.3671 0033767 338.0029  21.9752 15.15324252 41321
CZ-2C R/B               
1 31114U 07010B   25310.29452802  .00000203  00000+0  11260-3 0  9998
2 31114  98.3956  64.7837 0057957 293.4256  66.0835 14.20186990962208
COSMO-SKYMED 1          
1 31598U 07023A   25310.32464580  .00010069  00000+0  91674-3 0  9996
2 31598  97.8848 135.4931 0001276  91.3765 268.7601 14.95370330996453
COSMOS 2428             
1 31792U 07029A   25310.13583069 -.00000246  00000+0 -10626-3 0  9997
2 31792  70.9362 102.7267 0001883  94.5010 265.6326 14.12890725946643
SL-16 R/B               
1 31793U 07029B   25310.33255084  .00000148  00000+0  10138-3 0  9990
2 31793  70.9749  71.6837 0002206 257.8772 169.1888 14.14804130947929
KORONAS-FOTON           
1 33504U 09003A   25310.31662600  .00018883  00000+0  47124-3 0  9990
2 33504  82.4344  43.8054 0010749 237.5871 122.4335 15.39992983926735
CZ-2C R/B               
1 37731U 11030B   25310.16298100  .00002386  00000+0  30949-3 0  9990
2 37731  97.8354 265.0966 0054075  33.7841 337.2571 14.80697927771815
