CCSDS_OMM_VERS = 2.0
CREATION_DATE  = 
ORIGINATOR     = 

OBJECT_NAME    = ARIANE 5 R/B
OBJECT_ID      = 2004-049H
CENTER_NAME    = EARTH
REF_FRAME      = TEME
TIME_SYSTEM    = UTC
MEAN_ELEMENT_THEORY = SGP/SGP4

EPOCH          = 2025-11-05T23:54:56.621952
MEAN_MOTION    = 14.84897159
ECCENTRICITY   = .00854086
INCLINATION    = 98.2514
RA_OF_ASC_NODE = 108.9682
ARG_OF_PERICENTER = 32.6568
MEAN_ANOMALY   = 327.9886

EPHEMERIS_TYPE = 0
CLASSIFICATION_TYPE = U
NORAD_CAT_ID   = 28499
ELEMENT_SET_NO = 999
REV_AT_EPOCH   = 12743
BSTAR          = .12324705E-3
MEAN_MOTION_DOT = .1055E-4
MEAN_MOTION_DDOT = 0

CCSDS_OMM_VERS = 2.0
CREATION_DATE  = 
ORIGINATOR     = 

OBJECT_NAME    = CZ-2D R/B
OBJECT_ID      = 2005-024B
CENTER_NAME    = EARTH
REF_FRAME      = TEME
TIME_SYSTEM    = UTC
MEAN_ELEMENT_THEORY = SGP/SGP4

EPOCH          = 2025-11-06T07:00:53.665920
MEAN_MOTION    = 15.50721426
ECCENTRICITY   = .00081223
INCLINATION    = 97.3663
RA_OF_ASC_NODE = 316.8447
ARG_OF_PERICENTER = 107.0092
MEAN_ANOMALY   = 253.2050

EPHEMERIS_TYPE = 0
CLASSIFICATION_TYPE = U
NORAD_CAT_ID   = 28738
ELEMENT_SET_NO = 999
REV_AT_EPOCH   = 12060
BSTAR          = .520346E-3
MEAN_MOTION_DOT = .29924E-3
MEAN_MOTION_DDOT = 0

CCSDS_OMM_VERS = 2.0
CREATION_DATE  = 
ORIGINATOR     = 

OBJECT_NAME    = ALOS (DAICHI)
OBJECT_ID      = 2006-002A
CENTER_NAME    = EARTH
REF_FRAME      = TEME
TIME_SYSTEM    = UTC
MEAN_ELEMENT_THEORY = SGP/SGP4

EPOCH          = 2025-11-06T06:20:24.608544
MEAN_MOTION    = 14.69300803
ECCENTRICITY   = .00014109
INCLINATION    = 98.1033
RA_OF_ASC_NODE = 262.0245
ARG_OF_PERICENTER = 51.4737
MEAN_ANOMALY   = 308.6595

EPHEMERIS_TYPE = 0
CLASSIFICATION_TYPE = U
NORAD_CAT_ID   = 28931
ELEMENT_SET_NO = 999
REV_AT_EPOCH   = 5535
BSTAR          = .4217022E-3
MEAN_MOTION_DOT = .244E-4
MEAN_MOTION_DDOT = 0

CCSDS_OMM_VERS = 2.0
CREATION_DATE  = 
ORIGINATOR     = 

OBJECT_NAME    = H-2A R/B
OBJECT_ID      = 2006-002B
CENTER_NAME    = EARTH
REF_FRAME      = TEME
TIME_SYSTEM    = UTC
MEAN_ELEMENT_THEORY = SGP/SGP4

EPOCH          = 2025-11-06T07:17:50.308800
MEAN_MOTION    = 15.13551076
ECCENTRICITY   = .00548166
INCLINATION    = 98.2308
RA_OF_ASC_NODE = 82.1134
ARG_OF_PERICENTER = 301.0697
MEAN_ANOMALY   = 58.5159

EPHEMERIS_TYPE = 0
CLASSIFICATION_TYPE = U
NORAD_CAT_ID   = 28932
ELEMENT_SET_NO = 999
REV_AT_EPOCH   = 7575
BSTAR          = .67470109E-3
MEAN_MOTION_DOT = .12484E-3
MEAN_MOTION_DDOT = 0

CCSDS_OMM_VERS = 2.0
CREATION_DATE  = 
ORIGINATOR     = 

OBJECT_NAME    = RESURS-DK 1
OBJECT_ID      = 2006-021A
CENTER_NAME    = EARTH
REF_FRAME      = TEME
TIME_SYSTEM    = UTC
MEAN_ELEMENT_THEORY = SGP/SGP4

EPOCH          = 2025-11-06T04:19:05.039616
MEAN_MOTION    = 15.11857046
ECCENTRICITY   = .00073701
INCLINATION    = 69.9333
RA_OF_ASC_NODE = 196.2970
ARG_OF_PERICENTER = 288.5369
MEAN_ANOMALY   = 71.4996

EPHEMERIS_TYPE = 0
CLASSIFICATION_TYPE = U
NORAD_CAT_ID   = 29228
ELEMENT_SET_NO = 999
REV_AT_EPOCH   = 6885
BSTAR          = .21734081E-3
MEAN_MOTION_DOT = .3621E-4
MEAN_MOTION_DDOT = 0

CCSDS_OMM_VERS = 2.0
CREATION_DATE  = 
ORIGINATOR     = 

OBJECT_NAME    = CZ-4B R/B
OBJECT_ID      = 2006-046C
CENTER_NAME    = EARTH
REF_FRAME      = TEME
TIME_SYSTEM    = UTC
MEAN_ELEMENT_THEORY = SGP/SGP4

EPOCH          = 2025-11-06T03:02:39.130656
MEAN_MOTION    = 15.15324252
ECCENTRICITY   = .00337673
INCLINATION    = 97.5788
RA_OF_ASC_NODE = 350.3671
ARG_OF_PERICENTER = 338.0029
MEAN_ANOMALY   = 21.9752

EPHEMERIS_TYPE = 0
CLASSIFICATION_TYPE = U
NORAD_CAT_ID   = 29507
ELEMENT_SET_NO = 999
REV_AT_EPOCH   = 4132
BSTAR          = .38771823E-3
MEAN_MOTION_DOT = .7343E-4
MEAN_MOTION_DDOT = 0

CCSDS_OMM_VERS = 2.0
CREATION_DATE  = 
ORIGINATOR     = 

OBJECT_NAME    = CZ-2C R/B
OBJECT_ID      = 2007-010B
CENTER_NAME    = EARTH
REF_FRAME      = TEME
TIME_SYSTEM    = UTC
MEAN_ELEMENT_THEORY = SGP/SGP4

EPOCH          = 2025-11-06T07:04:07.220928
MEAN_MOTION    = 14.20186990
ECCENTRICITY   = .0057957
INCLINATION    = 98.3956
RA_OF_ASC_NODE = 64.7837
ARG_OF_PERICENTER = 293.4256
MEAN_ANOMALY   = 66.0835

EPHEMERIS_TYPE = 0
CLASSIFICATION_TYPE = U
NORAD_CAT_ID   = 31114
ELEMENT_SET_NO = 999
REV_AT_EPOCH   = 96220
BSTAR          = .11260411E-3
MEAN_MOTION_DOT = .203E-5
MEAN_MOTION_DDOT = 0

CCSDS_OMM_VERS = 2.0
CREATION_DATE  = 
ORIGINATOR     = 

OBJECT_NAME    = COSMO-SKYMED 1
OBJECT_ID      = 2007-023A
CENTER_NAME    = EARTH
REF_FRAME      = TEME
TIME_SYSTEM    = UTC
MEAN_ELEMENT_THEORY = SGP/SGP4

EPOCH          = 2025-11-06T07:47:29.397120
MEAN_MOTION    = 14.95370330
ECCENTRICITY   = .00012761
INCLINATION    = 97.8848
RA_OF_ASC_NODE = 135.4931
ARG_OF_PERICENTER = 91.3765
MEAN_ANOMALY   = 268.7601

EPHEMERIS_TYPE = 0
CLASSIFICATION_TYPE = U
NORAD_CAT_ID   = 31598
ELEMENT_SET_NO = 999
REV_AT_EPOCH   = 99645
BSTAR          = .9167367E-3
MEAN_MOTION_DOT = .10069E-3
MEAN_MOTION_DDOT = 0

CCSDS_OMM_VERS = 2.0
CREATION_DATE  = 
ORIGINATOR     = 

OBJECT_NAME    = COSMOS 2428
OBJECT_ID      = 2007-029A
CENTER_NAME    = EARTH
REF_FRAME      = TEME
TIME_SYSTEM    = UTC
MEAN_ELEMENT_THEORY = SGP/SGP4

EPOCH          = 2025-11-06T03:15:35.771616
MEAN_MOTION    = 14.12890725
ECCENTRICITY   = .00018835
INCLINATION    = 70.9362
RA_OF_ASC_NODE = 102.7267
ARG_OF_PERICENTER = 94.5010
MEAN_ANOMALY   = 265.6326

EPHEMERIS_TYPE = 0
CLASSIFICATION_TYPE = U
NORAD_CAT_ID   = 31792
ELEMENT_SET_NO = 999
REV_AT_EPOCH   = 94664
BSTAR          = -.10625551E-3
MEAN_MOTION_DOT = -.246E-5
MEAN_MOTION_DDOT = 0

CCSDS_OMM_VERS = 2.0
CREATION_DATE  = 
ORIGINATOR     = 

OBJECT_NAME    = SL-16 R/B
OBJECT_ID      = 2007-029B
CENTER_NAME    = EARTH
REF_FRAME      = TEME
TIME_SYSTEM    = UTC
MEAN_ELEMENT_THEORY = SGP/SGP4

EPOCH          = 2025-11-06T07:58:52.392576
MEAN_MOTION    = 14.14804130
ECCENTRICITY   = .00022065
INCLINATION    = 70.9749
RA_OF_ASC_NODE = 71.6837
ARG_OF_PERICENTER = 257.8772
MEAN_ANOMALY   = 169.1888

EPHEMERIS_TYPE = 0
CLASSIFICATION_TYPE = U
NORAD_CAT_ID   = 31793
ELEMENT_SET_NO = 999
REV_AT_EPOCH   = 94792
BSTAR          = .10138015E-3
MEAN_MOTION_DOT = .148E-5
MEAN_MOTION_DDOT = 0

CCSDS_OMM_VERS = 2.0
CREATION_DATE  = 
ORIGINATOR     = 

OBJECT_NAME    = KORONAS-FOTON
OBJECT_ID      = 2009-003A
CENTER_NAME    = EARTH
REF_FRAME      = TEME
TIME_SYSTEM    = UTC
MEAN_ELEMENT_THEORY = SGP/SGP4

EPOCH          = 2025-11-06T07:35:56.486400
MEAN_MOTION    = 15.39992983
ECCENTRICITY   = .00107499
INCLINATION    = 82.4344
RA_OF_ASC_NODE = 43.8054
ARG_OF_PERICENTER = 237.5871
MEAN_ANOMALY   = 122.4335

EPHEMERIS_TYPE = 0
CLASSIFICATION_TYPE = U
NORAD_CAT_ID   = 33504
ELEMENT_SET_NO = 999
REV_AT_EPOCH   = 92673
BSTAR          = .47124309E-3
MEAN_MOTION_DOT = .18883E-3
MEAN_MOTION_DDOT = 0

CCSDS_OMM_VERS = 2.0
CREATION_DATE  = 
ORIGINATOR     = 

OBJECT_NAME    = CZ-2C R/B
OBJECT_ID      = 2011-030B
CENTER_NAME    = EARTH
REF_FRAME      = TEME
TIME_SYSTEM    = UTC
MEAN_ELEMENT_THEORY = SGP/SGP4

EPOCH          = 2025-11-06T03:54:41.558400
MEAN_MOTION    = 14.80697927
ECCENTRICITY   = .00540758
INCLINATION    = 97.8354
RA_OF_ASC_NODE = 265.0966
ARG_OF_PERICENTER = 33.7841
MEAN_ANOMALY   = 337.2571

EPHEMERIS_TYPE = 0
CLASSIFICATION_TYPE = U
NORAD_CAT_ID   = 37731
ELEMENT_SET_NO = 999
REV_AT_EPOCH   = 77181
BSTAR          = .30948793E-3
MEAN_MOTION_DOT = .2386E-4
MEAN_MOTION_DDOT = 0

